[{"OBJECT_NAME":"KL-ALPHA B","OBJECT_ID":"2019-077B","EPOCH":"2026-03-09T22:53:20.656320","MEAN_MOTION":13.55991854,"ECCENTRICITY":0.00283835,"INCLINATION":88.9031,"RA_OF_ASC_NODE":231.1581,"ARG_OF_PERICENTER":80.1887,"MEAN_ANOMALY":280.247,"EPHEMERIS_TYPE":0,"CLASSIFICATION_TYPE":"U","NORAD_CAT_ID":44786,"ELEMENT_SET_NO":999,"REV_AT_EPOCH":31173,"BSTAR":0.00014525355,"MEAN_MOTION_DOT":1.14e-6,"MEAN_MOTION_DDOT":0},{"OBJECT_NAME":"QIANFAN-98","OBJECT_ID":"2025-233H","EPOCH":"2026-03-09T22:01:43.565376","MEAN_MOTION":13.51004961,"ECCENTRICITY":0.00024677,"INCLINATION":88.9932,"RA_OF_ASC_NODE":52.9579,"ARG_OF_PERICENTER":82.6298,"MEAN_ANOMALY":277.5134,"EPHEMERIS_TYPE":0,"CLASSIFICATION_TYPE":"U","NORAD_CAT_ID":66040,"ELEMENT_SET_NO":999,"REV_AT_EPOCH":1992,"BSTAR":9.5075827e-5,"MEAN_MOTION_DOT":7.3e-7,"MEAN_MOTION_DDOT":0}]
